STARLINK-31756          
1 61517U 24183J   26068.47295911 -.00000007  00000+0  11885-4 0  9992
2 61517  53.1601 143.7994 0001087 100.4447 259.6676 15.30187948 79611
TEVEL2-6                
1 63215U 25052F   26068.64958975  .00021046  00000+0  70909-3 0  9996
2 63215  97.4016 325.0381 0004769  95.6604 264.5181 15.30760889 54861
